*******************************************************************************
Ephemeris / WWW_USER Mon Jul 15 19:33:38 2024 Pasadena, USA      / Horizons    
*******************************************************************************
Target body name: (2015 BP519)                    {source: JPL#11}
Center body name: Earth (399)                     {source: DE441}
Center-site name: Gemini South Obs., Cerro Pachon
*******************************************************************************
Start time      : A.D. 2018-Dec-23 23:54:00.0000 UT      
Stop  time      : A.D. 2018-Dec-24 09:30:00.0000 UT      
Step-size       : 1 minutes
*******************************************************************************
Target pole/equ : undefined
Target radii    : undefined                                                    
Center geodetic : 289.2634, -30.2406227, 2.71233  {E-lon(deg),Lat(deg),Alt(km)}
Center cylindric: 289.2634,5517.21435,-3194.81213 {E-lon(deg),Dxy(km),Dz(km)}
Center pole/equ : ITRF93                          {East-longitude positive}
Center radii    : 6378.137, 6378.137, 6356.752 km {Equator_a, b, pole_c}       
Target primary  : Sun
Vis. interferer : MOON (R_eq= 1737.400) km        {source: DE441}
Rel. light bend : Sun                             {source: DE441}
Rel. lght bnd GM: 1.3271E+11 km^3/s^2                                          
Small-body perts: Yes                             {source: SB441-N16}
Atmos refraction: NO (AIRLESS)
RA format       : HMS
Time format     : CAL 
Calendar mode   : Mixed Julian/Gregorian
RTS-only print  : NO       
EOP file        : eop.240715.p241008                                           
EOP coverage    : DATA-BASED 1962-JAN-20 TO 2024-JUL-15. PREDICTS-> 2024-OCT-07
Units conversion: 1 au= 149597870.700 km, c= 299792.458 km/s, 1 day= 86400.0 s 
Table cut-offs 1: Elevation (-90.0deg=NO ),Airmass (>38.000=NO), Daylight (YES)
Table cut-offs 2: Solar elongation (  0.0,180.0=NO ),Local Hour Angle( 0.0=NO )
Table cut-offs 3: RA/DEC angular rate (     0.0=NO )                           
*******************************************************************************
Initial IAU76/J2000 heliocentric ecliptic osculating elements (au, days, deg.):
  EPOCH=  2459185.5 ! 2020-Dec-02.00 (TDB)         Residual RMS= .076636       
   EC= .9196800569382362   QR= 35.27062259520413   TP= 2473034.2681888649      
   OM= 135.0361763364557   W=  348.1354702472351   IN= 54.13300168900849       
  Equivalent ICRF heliocentric cartesian coordinates (au, au/d):
   X= 1.527332710437156E+01  Y= 4.057000090505051E+01  Z=-2.695001507835700E+01
  VX=-2.654302427537234E-03 VY= 4.512065776218028E-05 VZ= 1.968031006040699E-03
Asteroid physical parameters (km, seconds, rotational period in hours):        
   GM= n.a.                RAD= n.a.               ROTPER= n.a.                
   H= 4.34                 G= .150                 B-V= n.a.                   
                           ALBEDO= n.a.            STYP= n.a.                  
*******************************************************************************
 Date__(UT)__HR:MN     R.A._________(ICRF)_________DEC
******************************************************
$$SOE
 2018-Dec-24 08:06 Am  04 26 12.384885 -33 37 38.31123
 2018-Dec-24 08:07 Am  04 26 12.381931 -33 37 38.29571
 2018-Dec-24 08:08 Am  04 26 12.378976 -33 37 38.28018
 2018-Dec-24 08:09 Am  04 26 12.376022 -33 37 38.26465
 2018-Dec-24 08:10 Am  04 26 12.373068 -33 37 38.24912
 2018-Dec-24 08:11 Am  04 26 12.370114 -33 37 38.23359
 2018-Dec-24 08:12 Am  04 26 12.367161 -33 37 38.21806
 2018-Dec-24 08:13 Am  04 26 12.364207 -33 37 38.20253
 2018-Dec-24 08:14 Am  04 26 12.361254 -33 37 38.18700
 2018-Dec-24 08:15 Am  04 26 12.358302 -33 37 38.17147
 2018-Dec-24 08:16 Am  04 26 12.355349 -33 37 38.15594
 2018-Dec-24 08:17 Am  04 26 12.352397 -33 37 38.14040
 2018-Dec-24 08:18 Am  04 26 12.349445 -33 37 38.12487
 2018-Dec-24 08:19 Am  04 26 12.346493 -33 37 38.10933
 2018-Dec-24 08:20 Am  04 26 12.343541 -33 37 38.09380
 2018-Dec-24 08:21 Am  04 26 12.340590 -33 37 38.07826
 2018-Dec-24 08:22 Am  04 26 12.337639 -33 37 38.06272
 2018-Dec-24 08:23 Am  04 26 12.334688 -33 37 38.04718
 2018-Dec-24 08:24 Am  04 26 12.331737 -33 37 38.03164
 2018-Dec-24 08:25 Am  04 26 12.328787 -33 37 38.01610
 2018-Dec-24 08:26 Am  04 26 12.325837 -33 37 38.00056
 2018-Dec-24 08:27 Am  04 26 12.322887 -33 37 37.98502
 2018-Dec-24 08:28 Am  04 26 12.319937 -33 37 37.96948
 2018-Dec-24 08:29 Am  04 26 12.316988 -33 37 37.95394
 2018-Dec-24 08:30 Am  04 26 12.314038 -33 37 37.93839
 2018-Dec-24 08:31 Am  04 26 12.311089 -33 37 37.92285
 2018-Dec-24 08:32 Am  04 26 12.308141 -33 37 37.90731
 2018-Dec-24 08:33 Am  04 26 12.305192 -33 37 37.89176
 2018-Dec-24 08:34 Am  04 26 12.302244 -33 37 37.87622
 2018-Dec-24 08:35 Am  04 26 12.299296 -33 37 37.86067
 2018-Dec-24 08:36 Am  04 26 12.296348 -33 37 37.84512
 2018-Dec-24 08:37 Am  04 26 12.293401 -33 37 37.82957
 2018-Dec-24 08:38 Am  04 26 12.290454 -33 37 37.81403
 2018-Dec-24 08:39 Nm  04 26 12.287507 -33 37 37.79848
 2018-Dec-24 08:40 Nm  04 26 12.284560 -33 37 37.78293
 2018-Dec-24 08:41 Nm  04 26 12.281613 -33 37 37.76738
 2018-Dec-24 08:42 Nm  04 26 12.278667 -33 37 37.75183
 2018-Dec-24 08:43 Nm  04 26 12.275721 -33 37 37.73628
 2018-Dec-24 08:44 Nm  04 26 12.272775 -33 37 37.72072
 2018-Dec-24 08:45 Nm  04 26 12.269830 -33 37 37.70517
 2018-Dec-24 08:46 Nm  04 26 12.266884 -33 37 37.68962
 2018-Dec-24 08:47 Nm  04 26 12.263939 -33 37 37.67407
 2018-Dec-24 08:48 Nm  04 26 12.260995 -33 37 37.65851
 2018-Dec-24 08:49 Nm  04 26 12.258050 -33 37 37.64296
 2018-Dec-24 08:50 Nm  04 26 12.255106 -33 37 37.62740
 2018-Dec-24 08:51 Nm  04 26 12.252162 -33 37 37.61185
 2018-Dec-24 08:52 Nm  04 26 12.249218 -33 37 37.59629
 2018-Dec-24 08:53 Nm  04 26 12.246274 -33 37 37.58073
 2018-Dec-24 08:54 Nm  04 26 12.243331 -33 37 37.56518
 2018-Dec-24 08:55 Nm  04 26 12.240388 -33 37 37.54962
 2018-Dec-24 08:56 Nm  04 26 12.237445 -33 37 37.53406
 2018-Dec-24 08:57 Nm  04 26 12.234502 -33 37 37.51850
 2018-Dec-24 08:58 Nm  04 26 12.231560 -33 37 37.50294
 2018-Dec-24 08:59 Nm  04 26 12.228618 -33 37 37.48738
 2018-Dec-24 09:00 Nm  04 26 12.225676 -33 37 37.47182
 2018-Dec-24 09:01 Nm  04 26 12.222734 -33 37 37.45626
 2018-Dec-24 09:02 Nm  04 26 12.219793 -33 37 37.44070
 2018-Dec-24 09:03 Nm  04 26 12.216852 -33 37 37.42514
 2018-Dec-24 09:04 Nm  04 26 12.213911 -33 37 37.40958
 2018-Dec-24 09:05 Nm  04 26 12.210970 -33 37 37.39402
 2018-Dec-24 09:06 Nm  04 26 12.208030 -33 37 37.37845
 2018-Dec-24 09:07 Nm  04 26 12.205089 -33 37 37.36289
 2018-Dec-24 09:08 Nm  04 26 12.202150 -33 37 37.34733
 2018-Dec-24 09:09 Nm  04 26 12.199210 -33 37 37.33176
 2018-Dec-24 09:10 Nm  04 26 12.196270 -33 37 37.31620
 2018-Dec-24 09:11 Nm  04 26 12.193331 -33 37 37.30063
 2018-Dec-24 09:12 Nm  04 26 12.190392 -33 37 37.28507
 2018-Dec-24 09:13 Cm  04 26 12.187454 -33 37 37.26950
 2018-Dec-24 09:14 Cm  04 26 12.184515 -33 37 37.25394
 2018-Dec-24 09:15 Cm  04 26 12.181577 -33 37 37.23837
 2018-Dec-24 09:16 Cm  04 26 12.178639 -33 37 37.22280
 2018-Dec-24 09:17 Cm  04 26 12.175701 -33 37 37.20724
 2018-Dec-24 09:18 Cm  04 26 12.172764 -33 37 37.19167
 2018-Dec-24 09:19 Cm  04 26 12.169826 -33 37 37.17610
 2018-Dec-24 09:20 Cm  04 26 12.166889 -33 37 37.16054
 2018-Dec-24 09:21 Cm  04 26 12.163953 -33 37 37.14497
 2018-Dec-24 09:22 Cm  04 26 12.161016 -33 37 37.12940
 2018-Dec-24 09:23 Cm  04 26 12.158080 -33 37 37.11383
 2018-Dec-24 09:24 Cm  04 26 12.155144 -33 37 37.09826
 2018-Dec-24 09:25 Cm  04 26 12.152208 -33 37 37.08269
 2018-Dec-24 09:26 Cm  04 26 12.149272 -33 37 37.06712
 2018-Dec-24 09:27 Cm  04 26 12.146337 -33 37 37.05155
 2018-Dec-24 09:28 Cm  04 26 12.143402 -33 37 37.03598
 2018-Dec-24 09:29 Cm  04 26 12.140467 -33 37 37.02041
 2018-Dec-24 09:30 Cm  04 26 12.137533 -33 37 37.00484
